{"fetched_at":"2026-03-29T16:36:15Z","count":15609,"tles":[{"name":"STARLINK-32048","line1":"1 60156U 24120X   26087.68276110 -.00000879  00000+0 -17563-4 0  9992","line2":"2 60156  53.1609 231.7305 0001103  63.1027 297.0086 15.30194072 99281","category":"Starlink"}]}